{"formFieldFormats":{"initialPhoneFormat":{"id":0,"type":"PHONE_NUMBER","country":"DE","labelLocale":"de-DE","fields":[{"type":"FIELD","label":"1","identifier":"1","length":3,"required":false,"metadata":{}},{"type":"SEPARATOR","label":" ","identifier":"Space","length":0,"required":false,"metadata":{}},{"type":"FIELD","label":"2","identifier":"2","length":17,"required":false,"metadata":{}}]},"countries":[{"name":"Afghanistan","code":"AF","phoneCode":"+93"},{"name":"\u00C4gypten","code":"EG","phoneCode":"+20"},{"name":"\u00C5landinseln","code":"AX","phoneCode":"+358"},{"name":"Albanien","code":"AL","phoneCode":"+355"},{"name":"Algerien","code":"DZ","phoneCode":"+213"},{"name":"Amerikanische Jungferninseln","code":"VI","phoneCode":"+1"},{"name":"Amerikanisch-Samoa","code":"AS","phoneCode":"+1"},{"name":"Andorra","code":"AD","phoneCode":"+376"},{"name":"Angola","code":"AO","phoneCode":"+244"},{"name":"Anguilla","code":"AI","phoneCode":"+1"},{"name":"Antigua und Barbuda","code":"AG","phoneCode":"+1"},{"name":"\u00C4quatorialguinea","code":"GQ","phoneCode":"+240"},{"name":"Argentinien","code":"AR","phoneCode":"+54"},{"name":"Armenien","code":"AM","phoneCode":"+374"},{"name":"Aruba","code":"AW","phoneCode":"+297"},{"name":"Ascension","code":"AC","phoneCode":"+247"},{"name":"Aserbaidschan","code":"AZ","phoneCode":"+994"},{"name":"\u00C4thiopien","code":"ET","phoneCode":"+251"},{"name":"Australien","code":"AU","phoneCode":"+61"},{"name":"Bahamas","code":"BS","phoneCode":"+1"},{"name":"Bahrain","code":"BH","phoneCode":"+973"},{"name":"Bangladesch","code":"BD","phoneCode":"+880"},{"name":"Barbados","code":"BB","phoneCode":"+1"},{"name":"Belarus","code":"BY","phoneCode":"+375"},{"name":"Belgien","code":"BE","phoneCode":"+32"},{"name":"Belize","code":"BZ","phoneCode":"+501"},{"name":"Benin","code":"BJ","phoneCode":"+229"},{"name":"Bermuda","code":"BM","phoneCode":"+1"},{"name":"Bhutan","code":"BT","phoneCode":"+975"},{"name":"Bolivien","code":"BO","phoneCode":"+591"},{"name":"Bosnien und Herzegowina","code":"BA","phoneCode":"+387"},{"name":"Botsuana","code":"BW","phoneCode":"+267"},{"name":"Brasilien","code":"BR","phoneCode":"+55"},{"name":"Britische Jungferninseln","code":"VG","phoneCode":"+1"},{"name":"Britisches Territorium im Indischen Ozean","code":"IO","phoneCode":"+246"},{"name":"Brunei Darussalam","code":"BN","phoneCode":"+673"},{"name":"Bulgarien","code":"BG","phoneCode":"+359"},{"name":"Burkina Faso","code":"BF","phoneCode":"+226"},{"name":"Burundi","code":"BI","phoneCode":"+257"},{"name":"Cabo Verde","code":"CV","phoneCode":"+238"},{"name":"Chile","code":"CL","phoneCode":"+56"},{"name":"China","code":"CN","phoneCode":"+86"},{"name":"Cookinseln","code":"CK","phoneCode":"+682"},{"name":"Costa Rica","code":"CR","phoneCode":"+506"},{"name":"C\u00F4te d\u2019Ivoire","code":"CI","phoneCode":"+225"},{"name":"Cura\u00E7ao","code":"CW","phoneCode":"+599"},{"name":"D\u00E4nemark","code":"DK","phoneCode":"+45"},{"name":"Deutschland","code":"DE","phoneCode":"+49"},{"name":"Dominica","code":"DM","phoneCode":"+1"},{"name":"Dominikanische Republik","code":"DO","phoneCode":"+1"},{"name":"Dschibuti","code":"DJ","phoneCode":"+253"},{"name":"Ecuador","code":"EC","phoneCode":"+593"},{"name":"El Salvador","code":"SV","phoneCode":"+503"},{"name":"Eritrea","code":"ER","phoneCode":"+291"},{"name":"Estland","code":"EE","phoneCode":"+372"},{"name":"Eswatini","code":"SZ","phoneCode":"+268"},{"name":"Falklandinseln","code":"FK","phoneCode":"+500"},{"name":"F\u00E4r\u00F6er","code":"FO","phoneCode":"+298"},{"name":"Fidschi","code":"FJ","phoneCode":"+679"},{"name":"Finnland","code":"FI","phoneCode":"+358"},{"name":"Frankreich","code":"FR","phoneCode":"+33"},{"name":"Franz\u00F6sisch-Guayana","code":"GF","phoneCode":"+594"},{"name":"Franz\u00F6sisch-Polynesien","code":"PF","phoneCode":"+689"},{"name":"Gabun","code":"GA","phoneCode":"+241"},{"name":"Gambia","code":"GM","phoneCode":"+220"},{"name":"Georgien","code":"GE","phoneCode":"+995"},{"name":"Ghana","code":"GH","phoneCode":"+233"},{"name":"Gibraltar","code":"GI","phoneCode":"+350"},{"name":"Grenada","code":"GD","phoneCode":"+1"},{"name":"Griechenland","code":"GR","phoneCode":"+30"},{"name":"Gr\u00F6nland","code":"GL","phoneCode":"+299"},{"name":"Guadeloupe","code":"GP","phoneCode":"+590"},{"name":"Guam","code":"GU","phoneCode":"+1"},{"name":"Guatemala","code":"GT","phoneCode":"+502"},{"name":"Guernsey","code":"GG","phoneCode":"+44"},{"name":"Guinea","code":"GN","phoneCode":"+224"},{"name":"Guinea-Bissau","code":"GW","phoneCode":"+245"},{"name":"Guyana","code":"GY","phoneCode":"+592"},{"name":"Haiti","code":"HT","phoneCode":"+509"},{"name":"Honduras","code":"HN","phoneCode":"+504"},{"name":"Indien","code":"IN","phoneCode":"+91"},{"name":"Indonesien","code":"ID","phoneCode":"+62"},{"name":"Irak","code":"IQ","phoneCode":"+964"},{"name":"Iran","code":"IR","phoneCode":"+98"},{"name":"Irland","code":"IE","phoneCode":"+353"},{"name":"Island","code":"IS","phoneCode":"+354"},{"name":"Isle of Man","code":"IM","phoneCode":"+44"},{"name":"Israel","code":"IL","phoneCode":"+972"},{"name":"Italien","code":"IT","phoneCode":"+39"},{"name":"Jamaika","code":"JM","phoneCode":"+1"},{"name":"Japan","code":"JP","phoneCode":"+81"},{"name":"Jemen","code":"YE","phoneCode":"+967"},{"name":"Jersey","code":"JE","phoneCode":"+44"},{"name":"Jordanien","code":"JO","phoneCode":"+962"},{"name":"Kaimaninseln","code":"KY","phoneCode":"+1"},{"name":"Kambodscha","code":"KH","phoneCode":"+855"},{"name":"Kamerun","code":"CM","phoneCode":"+237"},{"name":"Kanada","code":"CA","phoneCode":"+1"},{"name":"Karibische Niederlande","code":"BQ","phoneCode":"+599"},{"name":"Kasachstan","code":"KZ","phoneCode":"+7"},{"name":"Katar","code":"QA","phoneCode":"+974"},{"name":"Kenia","code":"KE","phoneCode":"+254"},{"name":"Kirgisistan","code":"KG","phoneCode":"+996"},{"name":"Kiribati","code":"KI","phoneCode":"+686"},{"name":"Kokosinseln","code":"CC","phoneCode":"+61"},{"name":"Kolumbien","code":"CO","phoneCode":"+57"},{"name":"Komoren","code":"KM","phoneCode":"+269"},{"name":"Kongo-Brazzaville","code":"CG","phoneCode":"+242"},{"name":"Kongo-Kinshasa","code":"CD","phoneCode":"+243"},{"name":"Kosovo","code":"XK","phoneCode":"+383"},{"name":"Kroatien","code":"HR","phoneCode":"+385"},{"name":"Kuba","code":"CU","phoneCode":"+53"},{"name":"Kuwait","code":"KW","phoneCode":"+965"},{"name":"Laos","code":"LA","phoneCode":"+856"},{"name":"Lesotho","code":"LS","phoneCode":"+266"},{"name":"Lettland","code":"LV","phoneCode":"+371"},{"name":"Libanon","code":"LB","phoneCode":"+961"},{"name":"Liberia","code":"LR","phoneCode":"+231"},{"name":"Libyen","code":"LY","phoneCode":"+218"},{"name":"Liechtenstein","code":"LI","phoneCode":"+423"},{"name":"Litauen","code":"LT","phoneCode":"+370"},{"name":"Luxemburg","code":"LU","phoneCode":"+352"},{"name":"Madagaskar","code":"MG","phoneCode":"+261"},{"name":"Malawi","code":"MW","phoneCode":"+265"},{"name":"Malaysia","code":"MY","phoneCode":"+60"},{"name":"Malediven","code":"MV","phoneCode":"+960"},{"name":"Mali","code":"ML","phoneCode":"+223"},{"name":"Malta","code":"MT","phoneCode":"+356"},{"name":"Marokko","code":"MA","phoneCode":"+212"},{"name":"Marshallinseln","code":"MH","phoneCode":"+692"},{"name":"Martinique","code":"MQ","phoneCode":"+596"},{"name":"Mauretanien","code":"MR","phoneCode":"+222"},{"name":"Mauritius","code":"MU","phoneCode":"+230"},{"name":"Mayotte","code":"YT","phoneCode":"+262"},{"name":"Mexiko","code":"MX","phoneCode":"+52"},{"name":"Mikronesien","code":"FM","phoneCode":"+691"},{"name":"Monaco","code":"MC","phoneCode":"+377"},{"name":"Mongolei","code":"MN","phoneCode":"+976"},{"name":"Montenegro","code":"ME","phoneCode":"+382"},{"name":"Montserrat","code":"MS","phoneCode":"+1"},{"name":"Mosambik","code":"MZ","phoneCode":"+258"},{"name":"Myanmar","code":"MM","phoneCode":"+95"},{"name":"Namibia","code":"NA","phoneCode":"+264"},{"name":"Nauru","code":"NR","phoneCode":"+674"},{"name":"Nepal","code":"NP","phoneCode":"+977"},{"name":"Neukaledonien","code":"NC","phoneCode":"+687"},{"name":"Neuseeland","code":"NZ","phoneCode":"+64"},{"name":"Nicaragua","code":"NI","phoneCode":"+505"},{"name":"Niederlande","code":"NL","phoneCode":"+31"},{"name":"Niger","code":"NE","phoneCode":"+227"},{"name":"Nigeria","code":"NG","phoneCode":"+234"},{"name":"Niue","code":"NU","phoneCode":"+683"},{"name":"Nordkorea","code":"KP","phoneCode":"+850"},{"name":"N\u00F6rdliche Marianen","code":"MP","phoneCode":"+1"},{"name":"Nordmazedonien","code":"MK","phoneCode":"+389"},{"name":"Norfolkinsel","code":"NF","phoneCode":"+672"},{"name":"Norwegen","code":"NO","phoneCode":"+47"},{"name":"Oman","code":"OM","phoneCode":"+968"},{"name":"\u00D6sterreich","code":"AT","phoneCode":"+43"},{"name":"Pakistan","code":"PK","phoneCode":"+92"},{"name":"Pal\u00E4stinensische Autonomiegebiete","code":"PS","phoneCode":"+970"},{"name":"Palau","code":"PW","phoneCode":"+680"},{"name":"Panama","code":"PA","phoneCode":"+507"},{"name":"Papua-Neuguinea","code":"PG","phoneCode":"+675"},{"name":"Paraguay","code":"PY","phoneCode":"+595"},{"name":"Peru","code":"PE","phoneCode":"+51"},{"name":"Philippinen","code":"PH","phoneCode":"+63"},{"name":"Polen","code":"PL","phoneCode":"+48"},{"name":"Portugal","code":"PT","phoneCode":"+351"},{"name":"Puerto Rico","code":"PR","phoneCode":"+1"},{"name":"Republik Moldau","code":"MD","phoneCode":"+373"},{"name":"R\u00E9union","code":"RE","phoneCode":"+262"},{"name":"Ruanda","code":"RW","phoneCode":"+250"},{"name":"Rum\u00E4nien","code":"RO","phoneCode":"+40"},{"name":"Russland","code":"RU","phoneCode":"+7"},{"name":"Salomonen","code":"SB","phoneCode":"+677"},{"name":"Sambia","code":"ZM","phoneCode":"+260"},{"name":"Samoa","code":"WS","phoneCode":"+685"},{"name":"San Marino","code":"SM","phoneCode":"+378"},{"name":"S\u00E3o Tom\u00E9 und Pr\u00EDncipe","code":"ST","phoneCode":"+239"},{"name":"Saudi-Arabien","code":"SA","phoneCode":"+966"},{"name":"Schweden","code":"SE","phoneCode":"+46"},{"name":"Schweiz","code":"CH","phoneCode":"+41"},{"name":"Senegal","code":"SN","phoneCode":"+221"},{"name":"Serbien","code":"RS","phoneCode":"+381"},{"name":"Seychellen","code":"SC","phoneCode":"+248"},{"name":"Sierra Leone","code":"SL","phoneCode":"+232"},{"name":"Simbabwe","code":"ZW","phoneCode":"+263"},{"name":"Singapur","code":"SG","phoneCode":"+65"},{"name":"Sint Maarten","code":"SX","phoneCode":"+1"},{"name":"Slowakei","code":"SK","phoneCode":"+421"},{"name":"Slowenien","code":"SI","phoneCode":"+386"},{"name":"Somalia","code":"SO","phoneCode":"+252"},{"name":"Sonderverwaltungsregion Hongkong","code":"HK","phoneCode":"+852"},{"name":"Sonderverwaltungsregion Macau","code":"MO","phoneCode":"+853"},{"name":"Spanien","code":"ES","phoneCode":"+34"},{"name":"Spitzbergen und Jan Mayen","code":"SJ","phoneCode":"+47"},{"name":"Sri Lanka","code":"LK","phoneCode":"+94"},{"name":"St. Barth\u00E9lemy","code":"BL","phoneCode":"+590"},{"name":"St. Helena","code":"SH","phoneCode":"+290"},{"name":"St. Kitts und Nevis","code":"KN","phoneCode":"+1"},{"name":"St. Lucia","code":"LC","phoneCode":"+1"},{"name":"St. Martin","code":"MF","phoneCode":"+590"},{"name":"St. Pierre und Miquelon","code":"PM","phoneCode":"+508"},{"name":"St. Vincent und die Grenadinen","code":"VC","phoneCode":"+1"},{"name":"S\u00FCdafrika","code":"ZA","phoneCode":"+27"},{"name":"Sudan","code":"SD","phoneCode":"+249"},{"name":"S\u00FCdkorea","code":"KR","phoneCode":"+82"},{"name":"S\u00FCdsudan","code":"SS","phoneCode":"+211"},{"name":"Suriname","code":"SR","phoneCode":"+597"},{"name":"Syrien","code":"SY","phoneCode":"+963"},{"name":"Tadschikistan","code":"TJ","phoneCode":"+992"},{"name":"Taiwan","code":"TW","phoneCode":"+886"},{"name":"Tansania","code":"TZ","phoneCode":"+255"},{"name":"Thailand","code":"TH","phoneCode":"+66"},{"name":"Timor-Leste","code":"TL","phoneCode":"+670"},{"name":"Togo","code":"TG","phoneCode":"+228"},{"name":"Tokelau","code":"TK","phoneCode":"+690"},{"name":"Tonga","code":"TO","phoneCode":"+676"},{"name":"Trinidad und Tobago","code":"TT","phoneCode":"+1"},{"name":"Tristan da Cunha","code":"TA","phoneCode":"+290"},{"name":"Tschad","code":"TD","phoneCode":"+235"},{"name":"Tschechien","code":"CZ","phoneCode":"+420"},{"name":"Tunesien","code":"TN","phoneCode":"+216"},{"name":"T\u00FCrkei","code":"TR","phoneCode":"+90"},{"name":"Turkmenistan","code":"TM","phoneCode":"+993"},{"name":"Turks- und Caicosinseln","code":"TC","phoneCode":"+1"},{"name":"Tuvalu","code":"TV","phoneCode":"+688"},{"name":"Uganda","code":"UG","phoneCode":"+256"},{"name":"Ukraine","code":"UA","phoneCode":"+380"},{"name":"Ungarn","code":"HU","phoneCode":"+36"},{"name":"Uruguay","code":"UY","phoneCode":"+598"},{"name":"Usbekistan","code":"UZ","phoneCode":"+998"},{"name":"Vanuatu","code":"VU","phoneCode":"+678"},{"name":"Vatikanstadt","code":"VA","phoneCode":"+39"},{"name":"Venezuela","code":"VE","phoneCode":"+58"},{"name":"Vereinigte Arabische Emirate","code":"AE","phoneCode":"+971"},{"name":"Vereinigtes K\u00F6nigreich","code":"GB","phoneCode":"+44"},{"name":"Vereinigte Staaten","code":"US","phoneCode":"+1"},{"name":"Vietnam","code":"VN","phoneCode":"+84"},{"name":"Wallis und Futuna","code":"WF","phoneCode":"+681"},{"name":"Weihnachtsinsel","code":"CX","phoneCode":"+61"},{"name":"Westsahara","code":"EH","phoneCode":"+212"},{"name":"Zentralafrikanische Republik","code":"CF","phoneCode":"+236"},{"name":"Zypern","code":"CY","phoneCode":"+357"}],"initialAddressFormat":{"id":0,"type":"ADDRESS","country":"DE","labelLocale":"de","fields":[{"type":"FIELD","label":"Stra\u00DFe und Hausnummer","identifier":"Line1","length":0,"required":true,"metadata":{"autocomplete":"address-line1"}},{"type":"SEPARATOR","label":"\n","identifier":"Newline","length":0,"required":false,"metadata":{}},{"type":"FIELD","label":"Adresszusatz","identifier":"Line2","length":0,"required":false,"metadata":{"autocomplete":"address-line2"}},{"type":"SEPARATOR","label":"\n","identifier":"Newline","length":0,"required":false,"metadata":{}},{"type":"FIELD","label":"Postleitzahl","identifier":"Zip","length":0,"required":true,"metadata":{"autocomplete":"postal-code"}},{"type":"SEPARATOR","label":" ","identifier":"Space","length":0,"required":false,"metadata":{}},{"type":"FIELD","label":"Stadt","identifier":"City","length":0,"required":true,"metadata":{"autocomplete":"address-level1"}}]},"initialNameOrder":"GIVEN_FIRST"},"html":"{##\n  WARNING\n  Be extra cautious when changing the contents of this file along with any CSS or JS that styles or manipulates this HTML.\n  Due to the way Page Cache works, both logged-in and logged-out users may see pages with updated CSS and JS along with stale HTML.\n  If needed, please split your PR into two or more parts to make all CSS / JS changes backwards-compatible.\n  See https://jira.squarespace.net/browse/COE-1047 for details.\n##}\n{.if useFormsJs}\n  <script type=\"application/json\" id=\"form-context-{formId}\" class=\"sqs-form-block-context\">{formContext}</script>\n  <div id=\"form-submission-html-{formId}\" class=\"sqs-form-block-submission-html\" data-submission-html=\"{formSubmissionHTML|htmlattr}\"></div>\n{.end}\n\n{@|apply:block-background:\n  :backgroundColorVariable=--tweak-form-block-background-color:\n  :strokeColorVariable=--tweak-form-block-stroke-color:\n}\n\n{.if blockStatus}\n  {@|apply block-status}\n{.end}\n\n{.if useLightbox}\n  <div data-animation-role=\"button\" class=\"sqs-site-style-form lightbox-handle-wrapper{.if buttonAlignment} lightbox-handle-wrapper--align-{buttonAlignment}{.end}\">\n    <button class=\"lightbox-handle sqs-system-button sqs-editable-button sqs-button-element--{.if buttonVariant}{buttonVariant}{.or}primary{.end}\" data-sqsp-button>\n      {.if lightboxHandleText}\n        {lightboxHandleText|html}\n      {.or}\n        {localizedStrings.lightbox.openForm}\n      {.end}\n    </button>\n  </div>\n{.end}\n\n<div class=\"sqs-site-style-form form-wrapper{.if useLightbox} hidden{.end}{.if blockStatus.placeholderContent} sqs-block-is-placeholder{.end}\"\n  {.if blockStatus.state}data-block-state=\"{blockStatus.state}\"{.end}\n>\n  {.if showTitle}<div class=\"form-title\">{formName|htmltag}</div>{.end}\n  <div class=\"form-inner-wrapper\" {.if useFormsJs} hidden{.end}>\n    <form\n       data-form-id=\"{formId}\"\n       data-success-redirect=\"{successRedirect}\"\n       data-dynamic-strings\n       autocomplete=\"on\"\n       {.if preventSubmit}{.or}\n       method=\"POST\"\n       action=\"{secureUrl}\"\n       novalidate\n       onsubmit=\"return (function (form) {\n  Y.use('squarespace-form-submit', 'node', function usingFormSubmit(Y) {\n    (new Y.Squarespace.FormSubmit(form)).submit({\n      formId: '{formId}',\n      collectionId: '{collectionId}',\n      objectName: '{objectName}'\n    });\n  });\n  return false;\n})(this);\"\n       {.end}\n    >\n      {.section formFields}\n        <div class=\"field-list clear{.section type} form-type-{@}{.end}\">\n\n        {.repeated section @}\n\n          {.macro individual-input-label}\n            <label class=\"title\" for=\"{id|htmlattr}-field\">\n              {.section title}{@}{.end}\n              {.section required}\n                <span class=\"required\" aria-hidden=\"true\">*</span>\n              {.end}\n            </label>\n          {.end}\n\n          {.macro fieldset-legend}\n            <legend class=\"title\">\n              {.section title}{@}{.end}\n              {.section required}\n                <span class=\"required\" aria-hidden=\"true\">*</span>\n              {.end}\n            </legend>\n          {.end}\n\n            {.if hidden}\n              <input type=\"hidden\" class=\"form-item field hidden\" id=\"{id|htmlattr}\" name=\"{key|htmlattr}\" value=\"{value|htmlattr}\">\n            {.end}\n\n            {.if section}\n              <div id=\"{id|htmlattr}\" class=\"form-item section{.if underline} underline{.end}{.if required} required{.end}\">\n                <div class=\"title\">{.section title}{@}{.end}</div>\n                {.section description}<div class=\"description\">{@}</div>{.end}\n              </div>\n            {.end}\n\n            {.if text}\n              <div id=\"{id|htmlattr}\" class=\"form-item field text{.if required} required{.end}\">\n                {@|apply individual-input-label}\n                {.section description}<div class=\"description\">{@}</div>{.end}\n                <input\n                    class=\"field-element text\"\n                    type=\"text\"\n                    id=\"{id|htmlattr}-field\"\n                    {.section placeholder}placeholder=\"{@|htmlattr}\"{.end}\n                    {.if required}aria-required=\"true\"{.end}\n                />\n              </div>\n            {.end}\n\n            {.if textarea}\n              <div id=\"{id|htmlattr}\"{.if maxLength} data-max-length=\"{maxLength}\"{.end} class=\"form-item field textarea{.if required} required{.end}\">\n                {@|apply individual-input-label}\n                {.section description}<div class=\"description\">{@}</div>{.end}\n                <textarea\n                    class=\"field-element {size}\"\n                    id=\"{id|htmlattr}-field\"\n                    {.section placeholder}placeholder=\"{@|htmlattr}\"{.end}\n                    {.if required}aria-required=\"true\"{.end}\n                ></textarea>\n              </div>\n            {.end}\n\n            {.if email}\n              <div id=\"{id|htmlattr}\" class=\"form-item field email{.if required} required{.end}\">\n                {@|apply individual-input-label}\n                {.section description}<div class=\"description\">{@}</div>{.end}\n                <input\n                    class=\"field-element\"\n                    id=\"{id|htmlattr}-field\"\n                    name=\"email\"\n                    type=\"email\"\n                    autocomplete=\"email\"\n                    spellcheck=\"false\"\n                    {.section placeholder}placeholder=\"{@|htmlattr}\"{.end}\n                    {.if required}aria-required=\"true\"{.end}\n                />\n              </div>\n            {.end}\n\n            {.if currency}\n              <div id=\"{id|htmlattr}\" class=\"form-item field currency {.if currencySymbol}hassymbol{.end}{.if required} required{.end}\">\n                {@|apply individual-input-label}\n                {.section description}<div class=\"description\">{@}</div>{.end}\n                <input\n                    class=\"field-element\"\n                    type=\"text\"\n                    id=\"{id|htmlattr}-field\"\n                    autocomplete=\"false\"\n                    spellcheck=\"false\"\n                    {.if required}aria-required=\"true\"{.end}\n                />\n                {.section currencySymbol}<div class=\"prefix\">{@|html}</div>{.end}\n              </div>\n            {.end}\n\n            {.if number}\n              <div id=\"{id|htmlattr}\" class=\"form-item field number{.if required} required{.end}\">\n                {@|apply individual-input-label}\n                {.section description}<div class=\"description\">{@}</div>{.end}\n                <input\n                    class=\"field-element\"\n                    type=\"text\"\n                    id=\"{id|htmlattr}-field\"\n                    spellcheck=\"false\"\n                    {.section placeholder}placeholder=\"{@|html}\"{.end}\n                    {.if required}aria-required=\"true\"{.end}\n                />\n              </div>\n            {.end}\n\n            {.if website}\n              <div id=\"{id|htmlattr}\" class=\"form-item field website{.if required} required{.end}\">\n                {@|apply individual-input-label}\n                {.section description}<div class=\"description\">{@}</div>{.end}\n                <input\n                    class=\"field-element\"\n                    type=\"text\"\n                    id=\"{id|htmlattr}-field\"\n                    spellcheck=\"false\"\n                    {.section placeholder}placeholder=\"{@|htmlattr}\"{.end}\n                    {.if required}aria-required=\"true\"{.end}\n                />\n                <div class=\"prefix\">http://</div>\n              </div>\n            {.end}\n\n            {.if password}\n              <div id=\"{id|htmlattr}\" class=\"form-item field password{.if required} required{.end}\">\n                {@|apply individual-input-label}\n                {.section description}<div class=\"description\">{@}</div>{.end}\n                <input\n                    class=\"field-element\"\n                    type=\"password\"\n                    id=\"{id|htmlattr}-field\"\n                    {.if required}aria-required=\"true\"{.end}\n                />\n              </div>\n            {.end}\n\n            {.if twitter}\n              <div id=\"{id|htmlattr}\" class=\"form-item field twitter{.if required} required{.end}\">\n                {@|apply individual-input-label}\n                {.section description}<div class=\"description\">{@}</div>{.end}\n                <input\n                    class=\"field-element\"\n                    type=\"text\"\n                    id=\"{id|htmlattr}-field\"\n                    spellcheck=\"false\"\n                    {.if required}aria-required=\"true\"{.end}\n                />\n                <div class=\"prefix\">@</div>\n              </div>\n            {.end}\n\n            {.if radio}\n              <fieldset\n                  id=\"{id|htmlattr}\"\n                  class=\"form-item field radio{.if required} required{.end}\"\n                  {.if required}aria-required=\"true\"{.end}\n              >\n                {@|apply fieldset-legend}\n                {.section description}<div class=\"description\">{@}</div>{.end}\n                {.repeated section options}\n                  <div class=\"option\"><label><input type=\"radio\" name=\"{id|htmlattr}-field\" value=\"{@|htmlattr}\" /> {@|html}</label></div>\n                {.end}\n              </fieldset>\n            {.end}\n\n            {.if checkbox}\n              <fieldset\n                  id=\"{id|htmlattr}\"\n                  class=\"form-item field checkbox{.if required} required{.end}\"\n                  {.if required}aria-required=\"true\"{.end}\n              >\n                {@|apply fieldset-legend}\n                {.section description}<div class=\"description\">{@}</div>{.end}\n                {.repeated section options}\n                <div class=\"option\"><label><input type=\"checkbox\" name=\"{id|htmlattr}-field\" value=\"{@|htmlattr}\"/> {@|html}</label></div>\n                {.end}\n              </fieldset>\n            {.end}\n\n            {.if select}\n              <div id=\"{id|htmlattr}\" class=\"form-item field select{.if required} required{.end}\">\n                {@|apply individual-input-label}\n                {.section description}<div class=\"description\">{@}</div>{.end}\n                {##\n                  The `name` attribute is probably unused, leaving it here\n                  just because it's recommended for HTML form elements\n                  to have names.\n                ##}\n                <select\n                    id=\"{id|htmlattr}-field\"\n                    name=\"{id|htmlattr}-field\"\n                    {.if required}aria-required=\"true\"{.end}\n                >\n                  {.repeated section options}\n                    <option value=\"{@|htmlattr}\">{@|html}</option>\n                  {.end}\n                  <optgroup label=\"\"></optgroup>\n                </select>\n              </div>\n            {.end}\n\n            {.if name}\n              <fieldset id=\"{id|htmlattr}\" class=\"form-item fields name{.if required} required{.end}\">\n                {@|apply fieldset-legend}\n                {.section description}<div class=\"description\">{@}</div>{.end}\n                <div class=\"field first-name\">\n                  <label class=\"caption\">\n                    <input\n                        class=\"field-element field-control\"\n                        name=\"fname\"\n                        x-autocompletetype=\"given-name\"\n                        type=\"text\"\n                        spellcheck=\"false\"\n                        maxlength=\"30\"\n                        data-title=\"First\"\n                        {.if required}aria-required=\"true\"{.end}\n                    />\n                    <span class=\"caption-text\">{localizedStrings.name.firstName}</span>\n                  </label>\n                </div>\n                <div class=\"field last-name\">\n                  <label class=\"caption\">\n                    <input\n                        class=\"field-element field-control\"\n                        name=\"lname\"\n                        x-autocompletetype=\"surname\"\n                        type=\"text\"\n                        spellcheck=\"false\"\n                        maxlength=\"30\"\n                        data-title=\"Last\"\n                        {.if required}aria-required=\"true\"{.end}\n                    />\n                    <span class=\"caption-text\">{localizedStrings.name.lastName}</span>\n                  </label>\n                </div>\n              </fieldset>\n            {.end}\n\n            {.if date}\n              <fieldset id=\"{id|htmlattr}\" class=\"form-item fields date{.if required} required{.end}\">\n                {@|apply fieldset-legend}\n                {.section description}<div class=\"description\">{@}</div>{.end}\n                <div class=\"field month two-digits\">\n                  <label class=\"caption\">\n                    <input\n                        class=\"field-element\"\n                        type=\"text\"\n                        maxlength=\"2\"\n                        data-title=\"Month\"\n                        {.if required}aria-required=\"true\"{.end}\n                    />\n                    <span class=\"caption-text\">{localizedStrings.date.mm}</span>\n                  </label>\n                </div>\n                <div class=\"field day two-digits\">\n                  <label class=\"caption\">\n                    <input\n                      class=\"field-element\"\n                      type=\"text\"\n                      maxlength=\"2\"\n                      data-title=\"Day\"\n                      {.if required}aria-required=\"true\"{.end}\n                      />\n                    <span class=\"caption-text\">{localizedStrings.date.dd}</span>\n                  </label>\n                </div>\n                <div class=\"field year four-digits\">\n                  <label class=\"caption\">\n                    <input\n                        class=\"field-element\"\n                        type=\"text\"\n                        maxlength=\"4\"\n                        data-title=\"Year\"\n                        {.if required}aria-required=\"true\"{.end}\n                    />\n                    <span class=\"caption-text\">{localizedStrings.date.yyyy}</span>\n                  </label>\n                </div>\n              </fieldset>\n            {.end}\n\n            {.if time}\n              <fieldset id=\"{id|htmlattr}\" class=\"form-item fields time{.if required} required{.end}\">\n                {@|apply fieldset-legend}\n                {.section description}<div class=\"description\">{@}</div>{.end}\n                <div class=\"field hour two-digits\">\n                  <label class=\"caption\">\n                    <input\n                      class=\"field-element\"\n                      type=\"text\"\n                      maxlength=\"2\"\n                      data-title=\"Hour\"\n                      {.if required}aria-required=\"true\"{.end}\n                    />\n                    <span class=\"caption-text\">{localizedStrings.time.hour}</span>\n                  </label>\n                </div>\n                <div class=\"field minute two-digits\">\n                  <label class=\"caption\">\n                    <input\n                      class=\"field-element\"\n                      type=\"text\"\n                      maxlength=\"2\"\n                      data-title=\"Minute\"\n                      {.if required}aria-required=\"true\"{.end}\n                    />\n                    <span class=\"caption-text\">{localizedStrings.time.minute}</span>\n                  </label>\n                </div>\n                <div class=\"field second two-digits\">\n                  <label class=\"caption\">\n                    <input\n                      class=\"field-element\"\n                      type=\"text\"\n                      maxlength=\"2\"\n                      data-title=\"Second\"\n                      {.if required}aria-required=\"true\"{.end}\n                    />\n                    <span class=\"caption-text\">{localizedStrings.time.second}</span>\n                  </label>\n                </div>\n                <div class=\"field ampm\">\n                  <select\n                    class=\"field-element\"\n                    data-title=\"Ampm\"\n                    {.if required}aria-required=\"true\"{.end}\n                  >\n                    <option value=\"AM\">{localizedStrings.time.am}</option>\n                    <option value=\"PM\">{localizedStrings.time.pm}</option>\n                  </select>\n                </div>\n              </fieldset>\n            {.end}\n\n            {.if address}\n              <fieldset id=\"{id|htmlattr}\" class=\"form-item fields address{.if required} required{.end}\">\n                {@|apply fieldset-legend}\n                {.section description}<div class=\"description\">{@}</div>{.end}\n                <div class=\"field address1\">\n                  <label class=\"caption\">\n                    <input\n                      class=\"field-element field-control\"\n                      name=\"address\"\n                      x-autocompletetype=\"address-line1\"\n                      type=\"text\"\n                      spellcheck=\"false\"\n                      data-title=\"Line1\"\n                      {.if required}aria-required=\"true\"{.end}\n                    />\n                    <span class=\"caption-text\">{localizedStrings.address.address1}</span>\n                  </label>\n                </div>\n                <div class=\"field address2\">\n                  <label class=\"caption\">\n                    <input\n                      class=\"field-element field-control\"\n                      name=\"address2\"\n                      x-autocompletetype=\"address-line2\"\n                      type=\"text\"\n                      spellcheck=\"false\"\n                      data-title=\"Line2\"\n                      {.if required}aria-required=\"true\"{.end}\n                    />\n                    <span class=\"caption-text\">{localizedStrings.address.address2}</span>\n                  </label>\n                </div>\n                <div class=\"field city\">\n                  <label class=\"caption\">\n                    <input\n                      class=\"field-element field-control\"\n                      name=\"city\"\n                      x-autocompletetype=\"city\"\n                      type=\"text\"\n                      spellcheck=\"false\"\n                      data-title=\"City\"\n                      {.if required}aria-required=\"true\"{.end}\n                    />\n                    <span class=\"caption-text\">{localizedStrings.address.city}</span>\n                  </label>\n                </div>\n                <div class=\"field state-province\">\n                  <label class=\"caption\">\n                    <input\n                      class=\"field-element field-control\"\n                      name=\"state\"\n                      x-autocompletetype=\"state\"\n                      type=\"text\"\n                      spellcheck=\"false\"\n                      data-title=\"State\"\n                      {.if required}aria-required=\"true\"{.end}\n                    />\n                    <span class=\"caption-text\">{localizedStrings.address.stateProvince}</span>\n                  </label>\n                </div>\n                <div class=\"field zip\">\n                  <label class=\"caption\">\n                    <input\n                      class=\"field-element field-control\"\n                      name=\"zipcode\"\n                      x-autocompletetype=\"postal-code\"\n                      type=\"text\"\n                      spellcheck=\"false\"\n                      data-title=\"Zip\"\n                      {.if required}aria-required=\"true\"{.end}\n                    />\n                    <span class=\"caption-text\">{localizedStrings.address.zipPostalCode}</span>\n                  </label>\n                </div>\n                <div class=\"field country\">\n                  <label class=\"caption\">\n                    <input\n                      class=\"field-element field-control\"\n                      name=\"country\"\n                      x-autocompletetype=\"country\"\n                      type=\"text\"\n                      spellcheck=\"false\"\n                      data-title=\"Country\"\n                      {.if required}aria-required=\"true\"{.end}\n                    />\n                    <span class=\"caption-text\">{localizedStrings.address.country}</span>\n                  </label>\n                </div>\n              </fieldset>\n            {.end}\n\n            {.if phone}\n              <fieldset id=\"{id|htmlattr}\" class=\"form-item fields phone{.if required} required{.end}\">\n                {@|apply fieldset-legend}\n                {.section description}<div class=\"description\">{@}</div>{.end}\n                {.if showCountryCode}\n                  <div class=\"field text two-digits\">\n                    <label class=\"caption\">\n                      <input\n                        class=\"field-element\"\n                        x-autocompletetype=\"phone-country-code\"\n                        type=\"text\"\n                        maxlength=\"5\"\n                        data-title=\"Country\"\n                        {.if required}aria-required=\"true\"{.end}\n                      />\n                      <span class=\"caption-text\">{localizedStrings.phone.country}</span>\n                    </label>\n                  </div>\n                {.end}\n                <div class=\"field text three-digits\">\n                  <label class=\"caption\">\n                    <input\n                      class=\"field-element\"\n                      x-autocompletetype=\"phone-area-code\"\n                      type=\"text\"\n                      maxlength=\"3\"\n                      data-title=\"Areacode\"\n                      {.if required}aria-required=\"true\"{.end}\n                    />\n                    <span class=\"caption-text\">(###)</span>\n                  </label>\n                </div>\n                <div class=\"field text three-digits\">\n                  <label class=\"caption\">\n                    <input\n                      class=\"field-element\"\n                      x-autocompletetype=\"phone-local-prefix\"\n                      type=\"text\"\n                      maxlength=\"3\"\n                      data-title=\"Prefix\"\n                      {.if required}aria-required=\"true\"{.end}\n                    />\n                    <span class=\"caption-text\">###</span>\n                  </label>\n                </div>\n                <div class=\"field text four-digits\">\n                  <label class=\"caption\">\n                    <input\n                      class=\"field-element\"\n                      x-autocompletetype=\"phone-local-suffix\"\n                      type=\"text\"\n                      maxlength=\"4\"\n                      data-title=\"Line\"\n                      {.if required}aria-required=\"true\"{.end}\n                    />\n                    <span class=\"caption-text\">####</span>\n                  </label>\n                </div>\n              </fieldset>\n            {.end}\n\n            {.if likert}\n              <fieldset id=\"{id|htmlattr}\" class=\"form-item field likert{.if required} required{.end}\">\n                {@|apply fieldset-legend}\n                {.section description}<div class=\"description\">{@}</div>{.end}\n                {.repeated section options}\n                  <fieldset\n                      data-question=\"{@|htmlattr}\"\n                      class=\"item\"\n                      {.if required}aria-required=\"true\"{.end}\n                  >\n                    <legend class=\"question\">{@|html}</legend>\n                    <div class=\"option\">\n                      <label>\n                        <input type=\"radio\" name=\"{id|htmlattr}-field-{@|htmlattr}\" value=\"-2\" /> {localizedStrings.likert.stronglyDisagree}\n                      </label>\n                    </div>\n                    <div class=\"option\">\n                      <label>\n                        <input type=\"radio\" name=\"{id|htmlattr}-field-{@|htmlattr}\" value=\"-1\" /> {localizedStrings.likert.disagree}\n                      </label>\n                    </div>\n                    <div class=\"option\">\n                      <label>\n                        <input type=\"radio\" name=\"{id|htmlattr}-field-{@|htmlattr}\" value=\"0\" /> {localizedStrings.likert.neutral}\n                      </label>\n                    </div>\n                    <div class=\"option\">\n                      <label>\n                        <input type=\"radio\" name=\"{id|htmlattr}-field-{@|htmlattr}\" value=\"1\" /> {localizedStrings.likert.agree}\n                      </label>\n                    </div>\n                    <div class=\"option\">\n                      <label>\n                        <input type=\"radio\" name=\"{id|htmlattr}-field-{@|htmlattr}\" value=\"2\" /> {localizedStrings.likert.stronglyAgree}\n                      </label>\n                    </div>\n                  </fieldset>\n                {.end}\n              </fieldset>\n            {.end}\n\n        {.end}\n\n        </div>\n\n      {.end}\n\n      {.if captchaEnabled}\n      <div class=\"captcha-container\n        {.equal? captchaAlignment 1}align-left{.end}\n        {.equal? captchaAlignment 2}align-center{.end}\n        {.equal? captchaAlignment 3}align-right{.end}\n        \"\n        data-theme=\"{.equal? captchaTheme 1}light{.end}{.equal? captchaTheme 2}dark{.end}\"\n      ></div>\n      {.end}\n\n      {.if hideSubmitButton}{.or}\n      <div {.if useLightbox}{.or}data-animation-role=\"button\"{.end}\n        class=\"\n          form-button-wrapper\n          {.if buttonAlignment}\n            form-button-wrapper--align-{buttonAlignment}\n          {.end}\n        \"\n      >\n        <input\n          class=\"button sqs-system-button sqs-editable-button sqs-button-element--primary\"\n          type=\"submit\"\n          value=\"{.if formSubmitButtonText}{formSubmitButtonText|htmlattr}{.or}{localizedStrings.submit}{.end}\"\n          data-sqsp-button\n        />\n      </div>\n      {.end}\n\n      {.if disclaimerMessage}\n        {.if disclaimerMessage.html}\n          {.section disclaimerMessage}<div class=\"disclaimer-container disclaimerMessage\">{html}</div>{.end}\n        {.end}\n      {.end}\n      <div class=\"hidden form-submission-text\">{.section formSubmissionMessage}{html}{.end}</div>\n      <div class=\"hidden form-submission-html\" data-submission-html=\"{formSubmissionHTML|htmlattr}\"></div>\n    </form>\n  </div>\n</div>\n","localizedStrings":{"validation":{"noValidSelection":"G\u00FCltige Auswahl treffen.","invalidUrl":"Dies muss eine g\u00FCltige URL sein.","stringTooLong":"Wert sollte nicht mehr als {0} Zeichen enthalten.","containsInvalidKey":"{0} enth\u00E4lt einen ung\u00FCltigen Key.","invalidTwitterUsername":"Dies muss ein g\u00FCltiger Twitter Benutzername sein.","valueOutsideRange":"Wert muss innerhalb von {0} und {1} sein.","invalidPassword":"Passw\u00F6rter sollten keine Leerzeichen enthalten.","missingRequiredSubfields":"Teilfelder in {0} m\u00FCssen ausgef\u00FCllt werden: {1}","invalidCurrency":"W\u00E4hrung sollte wie folgt formatiert werden: 1234 oder 123.99.","invalidMapSize":"Wert sollte {0} Zeichen enthalten.","subfieldsRequired":"Alle Felder in {0} m\u00FCssen ausgef\u00FCllt werden.","formSubmissionFailed":"Formular\u00FCbermittlung fehlgeschlagen. \u00DCberpr\u00FCfe die folgenden Angaben: {0}.","invalidCountryCode":"Vorwahl sollte ein optionales Plus und bis zu 4 Ziffern beinhalten.","invalidDate":"Dies ist kein echtes Datum.","required":"{0} wird ben\u00F6tigt.","invalidStringLength":"Wert sollte {0} Zeichen lang sein.","invalidEmail":"E-Mail-Adressen sollten dem Format benutzer@domain.com folgen.","invalidListLength":"Wert sollte {0} Zeichen lang sein.","allEmpty":"Bitte mindestens ein Feld ausf\u00FCllen.","missingRequiredQuestion":"Eine erforderliche Frage fehlt.","invalidQuestion":"Enthielt eine ung\u00FCltige Frage.","captchaFailure":"Captcha-\u00DCberpr\u00FCfung fehlgeschlagen. Bitte versuche es erneut.","stringTooShort":"Wert sollte mindestens {0} Zeichen lang sein.","invalid":"{0} ist ung\u00FCltig.","formErrors":"Formularfehler","containsInvalidValue":"{0} enth\u00E4lt einen ung\u00FCltigen Wert.","invalidUnsignedNumber":"Nummern k\u00F6nnen nur Ziffern enthalten und keine anderen Zeichen.","invalidName":"G\u00FCltige Namen k\u00F6nnen nur Buchstaben, Zahlen, Leerzeichen, ', und Bindestriche enthalten."},"submit":"Senden","status":{"title":"{@}-Block","learnMore":"Mehr erfahren"},"name":{"firstName":"Vorname","lastName":"Nachname"},"lightbox":{"openForm":"Formular \u00F6ffnen"},"likert":{"agree":"Stimme zu","stronglyDisagree":"Stimme \u00FCberhaupt nicht zu","disagree":"Stimme nicht zu","stronglyAgree":"Stimme voll und ganz zu","neutral":"Neutral"},"time":{"am":"AM","second":"Sekunde","pm":"PM","minute":"Minute","amPm":"AM/PM","hour":"Stunde"},"notFound":"Formular konnte nicht gefunden werden.","date":{"yyyy":"JJJJ","year":"Jahr","mm":"MM","day":"Erde","month":"Monat","dd":"TT"},"phone":{"country":"Land","number":"Nummer","prefix":"Vorwahl","areaCode":"Vorwahl","line":"Nummer (letzte 4 Ziffern)"},"submitError":"Formular kann nicht gesendet werden. Bitte versuche es sp\u00E4ter erneut.","address":{"stateProvince":"Bundesland/Kanton","country":"Land","zipPostalCode":"PLZ/Postleitzahl","address2":"Adresszeile 2","address1":"Adresszeile 1","city":"Stadt"},"email":{"signUp":"Registriere dich f\u00FCr Neuigkeiten und Updates"},"cannotSubmitDemoForm":"Dies ist ein Beispielformular und konnte nicht versendet werden.","required":"(erforderlich)","invalidData":"Ung\u00FCltige Formular-Angaben."}}